{
  "links" : {
    "next" : "https://api.nasa.gov/neo/rest/v1/feed?start_date=2007-07-23&end_date=2007-07-23&detailed=true&api_key=t0TVs3DtDT2H8Oy2Zy8m2eVrNsAVKAexjcZXUckd",
    "prev" : "https://api.nasa.gov/neo/rest/v1/feed?start_date=2007-07-21&end_date=2007-07-21&detailed=true&api_key=t0TVs3DtDT2H8Oy2Zy8m2eVrNsAVKAexjcZXUckd",
    "self" : "https://api.nasa.gov/neo/rest/v1/feed?start_date=2007-07-22&end_date=2007-07-22&detailed=true&api_key=t0TVs3DtDT2H8Oy2Zy8m2eVrNsAVKAexjcZXUckd"
  },
  "element_count" : 3,
  "near_earth_objects" : {
    "2007-07-22" : [ {
      "links" : {
        "self" : "https://api.nasa.gov/neo/rest/v1/neo/3645541?api_key=t0TVs3DtDT2H8Oy2Zy8m2eVrNsAVKAexjcZXUckd"
      },
      "neo_reference_id" : "3645541",
      "name" : "(2013 PD26)",
      "nasa_jpl_url" : "http://ssd.jpl.nasa.gov/sbdb.cgi?sstr=3645541",
      "absolute_magnitude_h" : 23.1,
      "estimated_diameter" : {
        "kilometers" : {
          "estimated_diameter_min" : 0.063760979,
          "estimated_diameter_max" : 0.1425738833
        },
        "meters" : {
          "estimated_diameter_min" : 63.7609789875,
          "estimated_diameter_max" : 142.5738833281
        },
        "miles" : {
          "estimated_diameter_min" : 0.0396192233,
          "estimated_diameter_max" : 0.0885912765
        },
        "feet" : {
          "estimated_diameter_min" : 209.1895703015,
          "estimated_diameter_max" : 467.7620993781
        }
      },
      "is_potentially_hazardous_asteroid" : false,
      "close_approach_data" : [ {
        "close_approach_date" : "2007-07-22",
        "epoch_date_close_approach" : 1185087600000,
        "relative_velocity" : {
          "kilometers_per_second" : "3.6835023268",
          "kilometers_per_hour" : "13260.6083763476",
          "miles_per_hour" : "8239.6263547366"
        },
        "miss_distance" : {
          "astronomical" : "0.3794510623",
          "lunar" : "147.6064605713",
          "kilometers" : "56765072",
          "miles" : "35272180"
        },
        "orbiting_body" : "Earth"
      } ],
      "orbital_data" : {
        "orbit_id" : "8",
        "orbit_determination_date" : "2017-04-06 08:45:10",
        "orbit_uncertainty" : "1",
        "minimum_orbit_intersection" : ".244813",
        "jupiter_tisserand_invariant" : "3.665",
        "epoch_osculation" : "2458000.5",
        "eccentricity" : ".3946945274398188",
        "semi_major_axis" : "2.069789918876244",
        "inclination" : "6.582243901764348",
        "ascending_node_longitude" : "117.308223288837",
        "orbital_period" : "1087.646653357222",
        "perihelion_distance" : "1.252855164945684",
        "perihelion_argument" : "205.476475197103",
        "aphelion_distance" : "2.886724672806804",
        "perihelion_time" : "2457612.434116511112",
        "mean_anomaly" : "128.4458676214177",
        "mean_motion" : ".3309898475656534",
        "equinox" : "J2000"
      }
    }, {
      "links" : {
        "self" : "https://api.nasa.gov/neo/rest/v1/neo/3369098?api_key=t0TVs3DtDT2H8Oy2Zy8m2eVrNsAVKAexjcZXUckd"
      },
      "neo_reference_id" : "3369098",
      "name" : "(2007 DB61)",
      "nasa_jpl_url" : "http://ssd.jpl.nasa.gov/sbdb.cgi?sstr=3369098",
      "absolute_magnitude_h" : 23.6,
      "estimated_diameter" : {
        "kilometers" : {
          "estimated_diameter_min" : 0.0506471459,
          "estimated_diameter_max" : 0.1132504611
        },
        "meters" : {
          "estimated_diameter_min" : 50.6471458835,
          "estimated_diameter_max" : 113.2504610618
        },
        "miles" : {
          "estimated_diameter_min" : 0.0314706677,
          "estimated_diameter_max" : 0.0703705522
        },
        "feet" : {
          "estimated_diameter_min" : 166.1651821003,
          "estimated_diameter_max" : 371.5566426699
        }
      },
      "is_potentially_hazardous_asteroid" : false,
      "close_approach_data" : [ {
        "close_approach_date" : "2007-07-22",
        "epoch_date_close_approach" : 1185087600000,
        "relative_velocity" : {
          "kilometers_per_second" : "11.1832769099",
          "kilometers_per_hour" : "40259.7968755334",
          "miles_per_hour" : "25015.8721196891"
        },
        "miss_distance" : {
          "astronomical" : "0.3950269304",
          "lunar" : "153.6654663086",
          "kilometers" : "59095188",
          "miles" : "36720048"
        },
        "orbiting_body" : "Earth"
      } ],
      "orbital_data" : {
        "orbit_id" : "11",
        "orbit_determination_date" : "2017-04-06 09:06:54",
        "orbit_uncertainty" : "7",
        "minimum_orbit_intersection" : ".0134963",
        "jupiter_tisserand_invariant" : "7.146",
        "epoch_osculation" : "2458000.5",
        "eccentricity" : ".3647854204243114",
        "semi_major_axis" : ".8112699741040805",
        "inclination" : "5.38146974376348",
        "ascending_node_longitude" : "159.2151717828602",
        "orbital_period" : "266.8987444566194",
        "perihelion_distance" : ".5153305155229033",
        "perihelion_argument" : "209.2395001575234",
        "aphelion_distance" : "1.107209432685258",
        "perihelion_time" : "2458072.109270240029",
        "mean_anomaly" : "263.4115453075851",
        "mean_motion" : "1.348826127799611",
        "equinox" : "J2000"
      }
    }, {
      "links" : {
        "self" : "https://api.nasa.gov/neo/rest/v1/neo/3374350?api_key=t0TVs3DtDT2H8Oy2Zy8m2eVrNsAVKAexjcZXUckd"
      },
      "neo_reference_id" : "3374350",
      "name" : "(2007 HW3)",
      "nasa_jpl_url" : "http://ssd.jpl.nasa.gov/sbdb.cgi?sstr=3374350",
      "absolute_magnitude_h" : 20.4,
      "estimated_diameter" : {
        "kilometers" : {
          "estimated_diameter_min" : 0.2210828104,
          "estimated_diameter_max" : 0.4943561926
        },
        "meters" : {
          "estimated_diameter_min" : 221.0828103591,
          "estimated_diameter_max" : 494.3561926196
        },
        "miles" : {
          "estimated_diameter_min" : 0.137374447,
          "estimated_diameter_max" : 0.3071786018
        },
        "feet" : {
          "estimated_diameter_min" : 725.3373275385,
          "estimated_diameter_max" : 1621.9035709942
        }
      },
      "is_potentially_hazardous_asteroid" : false,
      "close_approach_data" : [ {
        "close_approach_date" : "2007-07-22",
        "epoch_date_close_approach" : 1185087600000,
        "relative_velocity" : {
          "kilometers_per_second" : "9.4865790289",
          "kilometers_per_hour" : "34151.6845039992",
          "miles_per_hour" : "21220.528629721"
        },
        "miss_distance" : {
          "astronomical" : "0.2655043041",
          "lunar" : "103.2811737061",
          "kilometers" : "39718880",
          "miles" : "24680166"
        },
        "orbiting_body" : "Earth"
      } ],
      "orbital_data" : {
        "orbit_id" : "20",
        "orbit_determination_date" : "2017-04-06 09:06:32",
        "orbit_uncertainty" : "5",
        "minimum_orbit_intersection" : ".191083",
        "jupiter_tisserand_invariant" : "3.048",
        "epoch_osculation" : "2458000.5",
        "eccentricity" : ".636515823324279",
        "semi_major_axis" : "2.61053691907204",
        "inclination" : "15.10668781883848",
        "ascending_node_longitude" : "202.9156455932273",
        "orbital_period" : "1540.61168020795",
        "perihelion_distance" : ".9488888627104736",
        "perihelion_argument" : "87.57483933094039",
        "aphelion_distance" : "4.272184975433606",
        "perihelion_time" : "2457394.548718255635",
        "mean_anomaly" : "141.5947082775115",
        "mean_motion" : ".2336734198661972",
        "equinox" : "J2000"
      }
    } ]
  }
}